GLOBALSTAR M023         
1 25621U 99004A   24251.87839153  .00000088  00000+0  10654-2 0  9999
2 25621  52.0094 193.0630 0009645 223.6905 197.9132 12.62469323180077
GLOBALSTAR M040         
1 25622U 99004B   24252.23745159 -.00000036  00000+0  37827-3 0  9999
2 25622  51.9902 195.7035 0000881 107.9610  39.3686 12.61982154179951
GLOBALSTAR M036         
1 25623U 99004C   24252.45656437 -.00000041  00000+0  60122-3 0  9994
2 25623  51.9948 262.8909 0010837 230.7371 277.7472 11.86582341145515
GLOBALSTAR M038         
1 25624U 99004D   24252.13055940 -.00000023  00000+0  58969-3 0  9998
2 25624  51.9967 163.8507 0001438 169.5446 283.3762 12.32507312167550
GLOBALSTAR M022         
1 25649U 99012A   24252.19530101 -.00000047  00000+0  48265-3 0  9991
2 25649  52.0072 337.4799 0002031 340.6031  36.1715 12.02487826142537
GLOBALSTAR M041         
1 25650U 99012B   24252.14566142 -.00000055  00000+0  39025-3 0  9995
2 25650  51.9994 210.4636 0002625 121.3555 238.7538 11.96660386144760
GLOBALSTAR M046         
1 25651U 99012C   24251.88134263  .00000068  00000+0  17248-2 0  9996
2 25651  52.0056 298.7739 0002287  55.8071 117.1045 12.09395890149503
GLOBALSTAR M037         
1 25652U 99012D   24252.23397744 -.00000061  00000+0  23973-3 0  9999
2 25652  52.0025 322.7044 0001435 277.8952 116.7905 12.62416787175715
